ONEWEB-0340             
1 49206U 21083W   24257.82603161  .00000798  00000+0  19913-2 0  9990
2 49206  87.9063 103.1201 0001731  78.6899 281.4427 13.18688602146735
ONEWEB-0341             
1 49207U 21083X   24257.53042919  .00000018  00000+0  12779-4 0  9997
2 49207  87.9065 103.1919 0002464  86.0430 274.0984 13.18687182146718
ONEWEB-0342             
1 49208U 21083Y   24258.14540923  .00000094  00000+0  19872-3 0  9998
2 49208  87.9224  41.9717 0001834 101.4722 258.6618 13.20770286153460
ONEWEB-0343             
1 49209U 21083Z   24257.52570359  .00000091  00000+0  19868-3 0  9998
2 49209  87.9060 103.1947 0002325  92.8165 267.3233 13.18684827146762
ONEWEB-0344             
1 49210U 21083AA  24257.52517458  .00000306  00000+0  80286-3 0  9992
2 49210  87.8855  87.9369 0002152  81.2045 278.9327 13.13467125147969
ONEWEB-0345             
1 49211U 21083AB  24257.54264361  .00000084  00000+0  19456-3 0  9991
2 49211  87.8852  87.9061 0002136  79.3385 280.7985 13.13468938147978
ONEWEB-0346             
1 49212U 21083AC  24257.53516893  .00000079  00000+0  16871-3 0  9993
2 49212  87.9064 103.2000 0001704  69.5731 290.5584 13.18687440146706
ONEWEB-0348             
1 49213U 21083AD  24257.45412943  .00000108  00000+0  23408-3 0  9993
2 49213  87.9230  42.0899 0002061  77.3614 282.7750 13.20771297153402
